0360P         2024 10  3.7653  1.851682  0.499135  354.2838    2.1775   24.1095  20241021  19.5  6.0  360P/WISE                                                MPEC 2024-U18
0361P         2029 06 21.0438  2.764584  0.439602  219.0883  203.2466   13.9005  20241021  12.0  4.0  361P/Spacewatch                                          MPEC 2023-CD7
0363P         2024 11 13.1970  1.720856  0.518591  340.8752  146.6328    5.3899  20241021  17.5  4.0  363P/Lemmon                                              MPC114609
0364P         2023 05 14.1310  0.808949  0.720511  212.4219   46.0829   12.0387  20241021  17.0  2.0  364P/PANSTARRS                                           MPEC 2024-M41
0365P         2023 10  9.4168  1.320965  0.581494   67.4202   86.6569    9.8500  20241021  17.0  4.0  365P/PANSTARRS                                           MPC111775
0366P         2025 01 30.9262  2.279964  0.348458  153.0072   70.7228    8.8570  20241021  15.0  4.0  366P/Spacewatch                                          MPC114610
0367P         2025 01 11.5972  2.527952  0.279982  172.7027   58.6613    8.4596  20241021  17.5  2.0  367P/Catalina                                            MPC112395
0368P         2018 09 15.8641  2.069120  0.626081  118.9773  257.8570   15.4824  20241021  14.0  4.0  368P/NEAT                                                MPC114610
0369P         2027 12 18.6931  1.944622  0.555950   13.2113   47.2944   10.3217  20241021  15.0  4.0  369P/Hill                                                MPC114610
0370P         2018 06 12.6585  2.476035  0.615429  356.7627   55.0823   19.4228  20241021  13.0  4.0  370P/NEAT                                                MPEC 2021-F20
0371P         2027 04 25.7419  2.187246  0.476792  308.5705   67.2829   17.3853  20241021  16.0  4.0  371P/LINEAR-Skiff                                        MPC114610
0372P         2028 05 24.0566  3.827895  0.151544  326.0122   27.5519    9.5061  20241021  13.5  4.0  372P/McNaught                                            MPEC 2020-K19
0373P         2026 09  4.8974  2.302640  0.393729  221.0873  231.9408   13.7702  20241021  14.5  4.0  373P/Rinner                                              MPEC 2021-F20
0374P         2030 02 13.4336  2.665651  0.463765   51.5401    7.8896   10.7631  20241021  14.0  4.0  374P/Larson                                              MPC114610
0375P         2018 12 22.7486  1.885688  0.660004  119.4083  359.8685   17.3692  20241021  16.0  4.0  375P/Hill                                                MPEC 2021-F20
0376P         2019 09 14.2633  2.799043  0.513770  285.4000  312.8502    1.1662  20241021  12.5  4.0  376P/LONEOS                                              MPEC 2024-RQ6
0377P         2020 07  9.3569  5.014414  0.251170  354.8714  226.0016    9.0262  20241021   9.5  4.0  377P/Scotti                                              MPEC 2022-N37
0378P         2020 10  9.2203  3.368851  0.464401  193.3636   93.8007   19.1532  20241021  12.0  4.0  378P/McNaught                                            MPEC 2024-TD8
0379P         2026 02 22.4961  2.265584  0.350149  184.5198   30.4833   12.4374  20241021  15.0  4.0  379P/Spacewatch                                          MPC115889
0380P         2028 08  8.7284  2.944757  0.335737   87.8871  127.9010    8.0231  20241021  12.5  4.0  380P/PANSTARRS                                           MPEC 2023-C45
0381P         2019 09 26.0173  2.279678  0.680911  173.8531  173.3038   28.3518  20241021  17.5  2.0  381P/LINEAR-Spacewatch                                   MPEC 2021-J28
0382P         2021 11 10.4577  4.327281  0.268777  162.1771  171.2671    8.2601  20241021   8.0  4.0  382P/Larson                                              MPEC 2024-MB8
0383P         2026 07  2.5094  1.424150  0.598647  133.7452  207.8537   12.3194  20241021  18.0  4.0  383P/Christensen                                         MPEC 2022-OB6
0384P         2024 09 19.1431  1.112082  0.616327   37.7136  354.1983    7.2832  20241021  19.5  4.0  384P/Kowalski                                            MPEC 2024-U18
0385P         2028 08  4.3435  2.564504  0.402051   44.4302  357.0543   16.8253  20241021  13.0  4.0  385P/Hill                                                MPEC 2021-F20
0386P         2028 10 13.8718  2.360011  0.417262  353.0852  134.9159   15.2434  20241021  14.5  4.0  386P/PANSTARRS                                           MPEC 2021-L04
0387P         2019 09  8.5407  1.261192  0.737098  162.8396  259.2397    8.9375  20241021  15.0  4.0  387P/Boattini                                            MPEC 2021-J28
0388P         2019 07 26.1569  1.994772  0.619360   42.3377   37.0245   23.8860  20241021  13.0  4.0  388P/Gibbs                                               MPEC 2021-S45
0389P         2019 12 31.0670  1.659339  0.705355  249.3627  218.8723  160.0839  20241021  16.0  4.0  389P/Siding Spring                                       MPEC 2022-OB6
0390P         2020 03 22.7722  1.704046  0.707017  232.5165  152.2243   18.5315  20241021  12.0  4.0  390P/Gibbs                                               MPEC 2024-EF7
0391P         2028 05 12.3703  4.133547  0.118581  187.1010  124.7819   21.2586  20241021   8.0  4.0  391P/Kowalski                                            MPEC 2021-F20
0392P         2020 04  2.4449  1.941400  0.683880   71.9187   24.8320    4.9303  20241021  14.5  4.0  392P/LINEAR                                              MPEC 2021-J28
0393P         2019 10 31.5631  4.224913  0.119543  329.2120   36.3962   16.7862  20241021  11.0  4.0  393P/Spacewatch-Hill                                     MPEC 2023-T65
0394P         2028 11 30.4205  2.735009  0.368027   54.4111   98.1178    8.5289  20241021  16.0  2.4  394P/PANSTARRS                                           MPEC 2020-KB7
0395P         2022 02 21.0170  4.224749  0.413107  100.4013  221.0141    3.5766  20241021  10.0  4.0  395P/Catalina-NEAT                                       MPEC 2024-PC5
0396P         2019 08 28.2983  3.966297  0.416672    8.3026  136.6160    5.4409  20241021  12.0  4.0  396P                                                     MPEC 2020-KB7
0397P         2027 12 20.7584  2.280375  0.404859   14.5759    8.2200   10.9230  20241021  12.0  4.0  397P/Lemmon                                              MPEC 2022-OB6
0398P         2026 07  7.9056  1.300986  0.583698  127.5250  320.1402   11.0249  20241021  15.5  4.0  398P/Boattini                                            MPEC 2021-L04
0399P         2021 05 23.4620  2.096095  0.447418  214.4188  207.1264   13.3195  20241021  14.0  4.0  399P/PANSTARRS                                           MPEC 2023-XP6
0400P         2027 11  2.6839  2.102595  0.409706  238.9163  176.3658   10.9261  20241021  15.5  2.8  400P/PANSTARRS                                           MPEC 2024-TD8
0401P         2019 12  4.5290  2.435109  0.578524  309.3956  359.9177   12.8008  20241021  12.5  4.0  401P/McNaught                                            MPEC 2022-K19
0402P         2021 12 15.7037  3.940423  0.440026  326.9128  123.0580   30.8304  20241021   9.0  4.0  402P/LINEAR                                              MPEC 2024-LE0
0403P         2020 09 17.5882  2.692242  0.504313  163.9298  277.5674   12.3304  20241021  12.0  4.0  403P/Catalina                                            MPEC 2021-J28
0404P         2023 11  2.7270  4.132569  0.124918  169.2106  260.0419    9.8042  20241021  10.0  4.0  404P/Bressi                                              MPEC 2024-TD8
0405P         2027 10 29.5802  1.117259  0.690029    3.2985  112.1913    9.3774  20241021  17.5  4.0  405P/Lemmon                                              MPEC 2021-L04
0406P         2027 06 24.6131  1.641497  0.541326   11.5548  352.4041    1.2104  20241021  17.0  4.0  406P/Gibbs                                               MPEC 2021-F20
0407P         2026 07 25.8381  2.175617  0.376357   93.3387   80.2396    4.8765  20241021  14.0  4.0  407P/PANSTARRS-Fuls                                      MPEC 2022-YN2
0408P         2022 10  5.9144  3.470034  0.268607  226.6308  189.4474   19.3550  20241021  11.0  4.0  408P/Novichonok-Gerke                                    MPEC 2024-N80
0409P         2021 01 28.2749  1.749617  0.710007   15.0471  143.6438   17.1405  20241021  14.0  4.0  409P/LONEOS-Hill                                         MPEC 2022-ED3
0410P         2021 06 24.4832  3.247220  0.511727  313.2043  139.9533    9.3884  20241021  12.5  4.0  410P/NEAT-LINEAR                                         MPEC 2022-M21
0411P         2021 01 25.1455  2.431476  0.581594   46.5503   77.6539   12.3899  20241021  13.5  4.0  411P/Christensen                                         MPEC 2021-J28
0412P         2026 05 30.7456  1.620785  0.478985  155.8811    0.8455    8.9306  20241021  17.0  4.0  412P/WISE                                                MPEC 2021-F20
0413P         2021 07 17.0394  2.171442  0.418539  186.5320   39.2344   15.9662  20241021  14.0  4.0  413P/Larson                                              MPEC 2022-OB6
0414P         2025 09 26.3406  0.524419  0.812208  210.6961  257.8184   23.4077  20241021  19.0  4.0  414P/STEREO                                              MPEC 2024-JU4
0415P         2021 02 13.6711  3.306618  0.195279  345.8670  160.2630   31.8023  20241021  12.0  4.0  415P/Tenagra                                             MPEC 2022-J42
0416P         2021 02 16.0912  2.183040  0.455215  134.4222  355.7497    3.3625  20241021  15.5  4.0  416P/Scotti                                              MPEC 2021-L04
0417P         2027 05  1.4379  1.422509  0.570446  123.5073  115.6968    9.1823  20241021  16.5  4.0  417P/NEOWISE                                             MPEC 2021-W31
0418P         2021 10 16.4950  1.712602  0.663693  307.3582  277.6340    5.7804  20241021  13.0  4.0  418P/LINEAR                                              MPEC 2022-TA0
